{
	"type": "FeatureCollection",
	"features": [
		{
			"type": "Feature",
			"properties": {
				"name": "Schlei",
				"grund": "Glazial entstandene Foerde ohne nennenswerten Suesswasserzufluss, ueber ihre ganzen 42 km brackig und Ostsee-verbunden. Die OSM-Kuestenlinie fuehrt sie als Binnenwasser; ohne diese Maske faellt sie beim Landabzug komplett heraus. Echter Wasserumriss aus OSM-Relation 2340930 (water=fjord) inkl. der seitlichen Noore — ersetzt die frueheren 1,2-3,8 km breiten Korridor-Vierecke entlang der Fjordachse. OSM-Wasserumriss +200 m Puffer (wie buffer_shore_m), vereinfacht 50 m, beides metrisch in EPSG:3035. Overpass-Abzug 2026-08-03."
			},
			"geometry": {
				"type": "MultiPolygon",
				"coordinates": [
					[
						[
							[
								9.54845,
								54.513796
							],
							[
								9.556437,
								54.514811
							],
							[
								9.56062,
								54.513333
							],
							[
								9.564605,
								54.513884
							],
							[
								9.567107,
								54.513184
							],
							[
								9.573638,
								54.514254
							],
							[
								9.580013,
								54.5123
							],
							[
								9.58379,
								54.512046
							],
							[
								9.584164,
								54.513279
							],
							[
								9.587689,
								54.51563
							],
							[
								9.594937,
								54.519846
							],
							[
								9.599033,
								54.521259
							],
							[
								9.597068,
								54.524177
							],
							[
								9.601895,
								54.527667
							],
							[
								9.617686,
								54.530209
							],
							[
								9.627263,
								54.53295
							],
							[
								9.632187,
								54.531254
							],
							[
								9.636109,
								54.526782
							],
							[
								9.634867,
								54.523808
							],
							[
								9.629287,
								54.521765
							],
							[
								9.632803,
								54.518388
							],
							[
								9.634137,
								54.521198
							],
							[
								9.638224,
								54.523183
							],
							[
								9.641801,
								54.523493
							],
							[
								9.643956,
								54.525395
							],
							[
								9.649001,
								54.525496
							],
							[
								9.651581,
								54.52435
							],
							[
								9.658089,
								54.524339
							],
							[
								9.667859,
								54.526716
							],
							[
								9.688964,
								54.528007
							],
							[
								9.696082,
								54.529242
							],
							[
								9.699311,
								54.528912
							],
							[
								9.702791,
								54.526737
							],
							[
								9.704794,
								54.524302
							],
							[
								9.705161,
								54.52118
							],
							[
								9.710026,
								54.52159
							],
							[
								9.713572,
								54.526059
							],
							[
								9.714621,
								54.529898
							],
							[
								9.710532,
								54.531832
							],
							[
								9.71095,
								54.533924
							],
							[
								9.718436,
								54.536183
							],
							[
								9.722632,
								54.535476
							],
							[
								9.725609,
								54.532638
							],
							[
								9.731979,
								54.533945
							],
							[
								9.732967,
								54.537354
							],
							[
								9.734797,
								54.538992
							],
							[
								9.734785,
								54.542634
							],
							[
								9.737599,
								54.54593
							],
							[
								9.745814,
								54.551444
							],
							[
								9.749239,
								54.554757
							],
							[
								9.751555,
								54.559365
							],
							[
								9.754702,
								54.560407
							],
							[
								9.757671,
								54.562946
							],
							[
								9.763628,
								54.564925
							],
							[
								9.760768,
								54.566209
							],
							[
								9.760156,
								54.56763
							],
							[
								9.764203,
								54.579372
							],
							[
								9.765871,
								54.58081
							],
							[
								9.770943,
								54.582704
							],
							[
								9.774108,
								54.582111
							],
							[
								9.775204,
								54.580424
							],
							[
								9.778907,
								54.581379
							],
							[
								9.782295,
								54.581074
							],
							[
								9.784595,
								54.578926
							],
							[
								9.781799,
								54.576606
							],
							[
								9.78795,
								54.575156
							],
							[
								9.791114,
								54.575256
							],
							[
								9.797024,
								54.579395
							],
							[
								9.808455,
								54.580756
							],
							[
								9.808894,
								54.582311
							],
							[
								9.813776,
								54.586502
							],
							[
								9.818639,
								54.587722
							],
							[
								9.818954,
								54.589662
							],
							[
								9.822268,
								54.592512
							],
							[
								9.830149,
								54.59512
							],
							[
								9.830267,
								54.597805
							],
							[
								9.832268,
								54.59924
							],
							[
								9.840005,
								54.60083
							],
							[
								9.843305,
								54.602633
							],
							[
								9.854242,
								54.602803
							],
							[
								9.856547,
								54.603539
							],
							[
								9.85886,
								54.605906
							],
							[
								9.866627,
								54.609043
							],
							[
								9.874083,
								54.61088
							],
							[
								9.877839,
								54.616937
							],
							[
								9.888907,
								54.624223
							],
							[
								9.895927,
								54.62667
							],
							[
								9.906858,
								54.629138
							],
							[
								9.910592,
								54.631485
							],
							[
								9.917233,
								54.630078
							],
							[
								9.926586,
								54.629251
							],
							[
								9.929339,
								54.629767
							],
							[
								9.926402,
								54.6327
							],
							[
								9.927713,
								54.635323
							],
							[
								9.926826,
								54.640808
							],
							[
								9.928853,
								54.643164
							],
							[
								9.930211,
								54.649096
							],
							[
								9.929588,
								54.651335
							],
							[
								9.933001,
								54.655066
							],
							[
								9.931288,
								54.660296
							],
							[
								9.934816,
								54.665292
							],
							[
								9.934601,
								54.669351
							],
							[
								9.935665,
								54.670918
							],
							[
								9.934309,
								54.673244
							],
							[
								9.935768,
								54.674472
							],
							[
								9.941258,
								54.67566
							],
							[
								9.943839,
								54.678603
							],
							[
								9.948859,
								54.680161
							],
							[
								9.955315,
								54.679566
							],
							[
								9.960758,
								54.680324
							],
							[
								9.964764,
								54.684017
							],
							[
								9.967143,
								54.685046
							],
							[
								9.97594,
								54.683965
							],
							[
								9.979268,
								54.68532
							],
							[
								9.993096,
								54.684152
							],
							[
								9.998228,
								54.689066
							],
							[
								10.001349,
								54.690134
							],
							[
								10.006278,
								54.690102
							],
							[
								10.009583,
								54.691102
							],
							[
								10.009915,
								54.693483
							],
							[
								10.017241,
								54.695926
							],
							[
								10.029396,
								54.69216
							],
							[
								10.031534,
								54.689194
							],
							[
								10.037702,
								54.68533
							],
							[
								10.038409,
								54.682588
							],
							[
								10.036003,
								54.680868
							],
							[
								10.034453,
								54.677764
							],
							[
								10.036307,
								54.673729
							],
							[
								10.039092,
								54.671946
							],
							[
								10.039016,
								54.670112
							],
							[
								10.036088,
								54.6687
							],
							[
								10.033612,
								54.663737
							],
							[
								10.030402,
								54.66206
							],
							[
								10.017774,
								54.662349
							],
							[
								10.014594,
								54.659931
							],
							[
								10.008266,
								54.659979
							],
							[
								10.006055,
								54.661511
							],
							[
								10.001908,
								54.668848
							],
							[
								9.999575,
								54.663912
							],
							[
								9.996452,
								54.663265
							],
							[
								9.993374,
								54.664616
							],
							[
								9.990226,
								54.662383
							],
							[
								9.987265,
								54.662147
							],
							[
								9.984856,
								54.663591
							],
							[
								9.986221,
								54.668045
							],
							[
								9.982781,
								54.66837
							],
							[
								9.974943,
								54.672267
							],
							[
								9.968887,
								54.672294
							],
							[
								9.95904,
								54.673652
							],
							[
								9.9515,
								54.672748
							],
							[
								9.947956,
								54.668056
							],
							[
								9.94444,
								54.666062
							],
							[
								9.944432,
								54.66374
							],
							[
								9.942243,
								54.661581
							],
							[
								9.944689,
								54.654832
							],
							[
								9.943248,
								54.651687
							],
							[
								9.940162,
								54.650077
							],
							[
								9.941671,
								54.647844
							],
							[
								9.941086,
								54.645811
							],
							[
								9.947112,
								54.641565
							],
							[
								9.948475,
								54.636645
							],
							[
								9.940275,
								54.628408
							],
							[
								9.942081,
								54.625547
							],
							[
								9.940408,
								54.622127
							],
							[
								9.930343,
								54.620632
							],
							[
								9.928744,
								54.618485
							],
							[
								9.923939,
								54.616955
							],
							[
								9.920461,
								54.614864
							],
							[
								9.914935,
								54.614683
							],
							[
								9.907435,
								54.613083
							],
							[
								9.8963,
								54.60618
							],
							[
								9.889745,
								54.604431
							],
							[
								9.884479,
								54.599588
							],
							[
								9.880218,
								54.597387
							],
							[
								9.863089,
								54.594293
							],
							[
								9.85871,
								54.591613
							],
							[
								9.851947,
								54.589836
							],
							[
								9.849579,
								54.58779
							],
							[
								9.844088,
								54.58665
							],
							[
								9.842695,
								54.584067
							],
							[
								9.840481,
								54.582709
							],
							[
								9.834949,
								54.582318
							],
							[
								9.827724,
								54.579732
							],
							[
								9.82333,
								54.579781
							],
							[
								9.819461,
								54.575975
							],
							[
								9.810964,
								54.571215
							],
							[
								9.804964,
								54.565588
							],
							[
								9.799791,
								54.56257
							],
							[
								9.792628,
								54.560011
							],
							[
								9.77905,
								54.551701
							],
							[
								9.774447,
								54.550738
							],
							[
								9.771503,
								54.55194
							],
							[
								9.771639,
								54.553645
							],
							[
								9.77504,
								54.556392
							],
							[
								9.768244,
								54.554665
							],
							[
								9.763644,
								54.547997
							],
							[
								9.758213,
								54.545849
							],
							[
								9.75216,
								54.545149
							],
							[
								9.749383,
								54.542446
							],
							[
								9.747403,
								54.538473
							],
							[
								9.747582,
								54.53586
							],
							[
								9.744259,
								54.534162
							],
							[
								9.745927,
								54.53139
							],
							[
								9.745585,
								54.529512
							],
							[
								9.740382,
								54.526147
							],
							[
								9.742878,
								54.524688
							],
							[
								9.74161,
								54.521939
							],
							[
								9.738437,
								54.521278
							],
							[
								9.735672,
								54.523026
							],
							[
								9.734496,
								54.522744
							],
							[
								9.730458,
								54.52149
							],
							[
								9.730065,
								54.519412
							],
							[
								9.726345,
								54.518176
							],
							[
								9.720522,
								54.519811
							],
							[
								9.719611,
								54.522391
							],
							[
								9.718768,
								54.521681
							],
							[
								9.719389,
								54.517768
							],
							[
								9.717568,
								54.515877
							],
							[
								9.713593,
								54.514818
							],
							[
								9.707462,
								54.515231
							],
							[
								9.704603,
								54.514519
							],
							[
								9.711396,
								54.509473
							],
							[
								9.716217,
								54.498585
							],
							[
								9.714065,
								54.493271
							],
							[
								9.709452,
								54.489813
							],
							[
								9.703228,
								54.489613
							],
							[
								9.697068,
								54.488248
							],
							[
								9.689571,
								54.48878
							],
							[
								9.687735,
								54.489886
							],
							[
								9.687293,
								54.491398
							],
							[
								9.682314,
								54.493965
							],
							[
								9.676511,
								54.493348
							],
							[
								9.670816,
								54.495445
							],
							[
								9.667261,
								54.498405
							],
							[
								9.665202,
								54.503641
							],
							[
								9.662532,
								54.505537
							],
							[
								9.646218,
								54.50843
							],
							[
								9.642268,
								54.508848
							],
							[
								9.641812,
								54.506776
							],
							[
								9.638887,
								54.506039
							],
							[
								9.632977,
								54.507129
							],
							[
								9.628853,
								54.509913
							],
							[
								9.625623,
								54.509914
							],
							[
								9.611889,
								54.505935
							],
							[
								9.595938,
								54.504161
							],
							[
								9.593032,
								54.502816
							],
							[
								9.589214,
								54.502466
							],
							[
								9.586188,
								54.500534
							],
							[
								9.582691,
								54.499585
							],
							[
								9.573953,
								54.498781
							],
							[
								9.570822,
								54.500302
							],
							[
								9.560523,
								54.499731
							],
							[
								9.557659,
								54.500529
							],
							[
								9.555949,
								54.502112
							],
							[
								9.553264,
								54.50148
							],
							[
								9.550519,
								54.501974
							],
							[
								9.545071,
								54.505284
							],
							[
								9.544595,
								54.506959
							],
							[
								9.541087,
								54.50905
							],
							[
								9.541426,
								54.510798
							],
							[
								9.54845,
								54.513796
							]
						],
						[
							[
								9.721358,
								54.524722
							],
							[
								9.719683,
								54.522475
							],
							[
								9.720591,
								54.523067
							],
							[
								9.721358,
								54.524722
							]
						],
						[
							[
								10.001247,
								54.67076
							],
							[
								10.001223,
								54.67085
							],
							[
								10.001177,
								54.670753
							],
							[
								10.001247,
								54.67076
							]
						]
					]
				]
			}
		},
		{
			"type": "Feature",
			"properties": {
				"name": "Untertrave",
				"grund": "Brackiger Muendungsbereich zwischen Luebeck und Travemuende mit Sichtungshaeufung, u.a. Kegelrobben bei Travemuende. Als Binnenwasser kartiert und ohne Maske beim Landabzug entfernt. Zusammengesetzt aus den OSM-Wasserflaechen entlang der Flussachse Luebeck-Travemuende inkl. Poetenitzer Wiek und Dassower See, geclippt auf 10,62-11,03 O / 53,855-53,99 N, nur Komponenten ueber 0,5 km2 an der Achse (haelt Elbe-Luebeck-Kanal, Obertrave und Teiche draussen). OSM-Wasserumriss +200 m Puffer (wie buffer_shore_m), vereinfacht 50 m, beides metrisch in EPSG:3035. Overpass-Abzug 2026-08-03."
			},
			"geometry": {
				"type": "MultiPolygon",
				"coordinates": [
					[
						[
							[
								10.675707,
								53.858124
							],
							[
								10.675365,
								53.859573
							],
							[
								10.672442,
								53.861332
							],
							[
								10.672089,
								53.87076
							],
							[
								10.67537,
								53.874107
							],
							[
								10.686168,
								53.878435
							],
							[
								10.687747,
								53.884327
							],
							[
								10.696862,
								53.890084
							],
							[
								10.693774,
								53.890309
							],
							[
								10.692251,
								53.891349
							],
							[
								10.692799,
								53.897672
							],
							[
								10.694165,
								53.899673
							],
							[
								10.690357,
								53.900341
							],
							[
								10.689598,
								53.904113
							],
							[
								10.69118,
								53.908236
							],
							[
								10.697116,
								53.911794
							],
							[
								10.704149,
								53.913783
							],
							[
								10.708455,
								53.913137
							],
							[
								10.711361,
								53.911531
							],
							[
								10.712924,
								53.916153
							],
							[
								10.716088,
								53.917268
							],
							[
								10.718899,
								53.915717
							],
							[
								10.717645,
								53.909802
							],
							[
								10.718859,
								53.909317
							],
							[
								10.733985,
								53.911953
							],
							[
								10.738319,
								53.911237
							],
							[
								10.753457,
								53.911071
							],
							[
								10.759432,
								53.910401
							],
							[
								10.766348,
								53.908328
							],
							[
								10.776358,
								53.90272
							],
							[
								10.785823,
								53.89915
							],
							[
								10.788527,
								53.899679
							],
							[
								10.796049,
								53.89791
							],
							[
								10.799733,
								53.898055
							],
							[
								10.800903,
								53.899624
							],
							[
								10.803635,
								53.900103
							],
							[
								10.811689,
								53.897252
							],
							[
								10.818037,
								53.89918
							],
							[
								10.8245,
								53.899925
							],
							[
								10.835604,
								53.904917
							],
							[
								10.842074,
								53.90939
							],
							[
								10.851807,
								53.912248
							],
							[
								10.857131,
								53.914885
							],
							[
								10.858663,
								53.918907
							],
							[
								10.862321,
								53.91995
							],
							[
								10.859475,
								53.92537
							],
							[
								10.861419,
								53.931377
							],
							[
								10.859862,
								53.93497
							],
							[
								10.858006,
								53.935324
							],
							[
								10.856734,
								53.936589
							],
							[
								10.858614,
								53.939865
							],
							[
								10.856629,
								53.941683
							],
							[
								10.856351,
								53.945771
							],
							[
								10.854089,
								53.950925
							],
							[
								10.854229,
								53.954308
							],
							[
								10.857374,
								53.956378
							],
							[
								10.866837,
								53.95757
							],
							[
								10.872388,
								53.960268
							],
							[
								10.882975,
								53.962265
							],
							[
								10.886398,
								53.961056
							],
							[
								10.886514,
								53.958219
							],
							[
								10.8828,
								53.955318
							],
							[
								10.875437,
								53.954126
							],
							[
								10.876061,
								53.952774
							],
							[
								10.874933,
								53.951525
							],
							[
								10.867646,
								53.950739
							],
							[
								10.865943,
								53.947639
							],
							[
								10.86766,
								53.943334
							],
							[
								10.879124,
								53.945979
							],
							[
								10.879519,
								53.949511
							],
							[
								10.884072,
								53.951359
							],
							[
								10.88571,
								53.952895
							],
							[
								10.901302,
								53.955714
							],
							[
								10.906572,
								53.954855
							],
							[
								10.910968,
								53.95214
							],
							[
								10.912835,
								53.946204
							],
							[
								10.911261,
								53.9442
							],
							[
								10.907646,
								53.942416
							],
							[
								10.899339,
								53.935704
							],
							[
								10.898037,
								53.931614
							],
							[
								10.898152,
								53.925212
							],
							[
								10.914053,
								53.925773
							],
							[
								10.926293,
								53.923274
							],
							[
								10.931145,
								53.920328
							],
							[
								10.935818,
								53.921548
							],
							[
								10.940499,
								53.920889
							],
							[
								10.950395,
								53.914529
							],
							[
								10.960194,
								53.916281
							],
							[
								10.965717,
								53.914914
							],
							[
								10.970333,
								53.911065
							],
							[
								10.971501,
								53.90884
							],
							[
								10.970848,
								53.907165
							],
							[
								10.975006,
								53.900179
							],
							[
								10.973786,
								53.898279
							],
							[
								10.969606,
								53.896668
							],
							[
								10.970503,
								53.89479
							],
							[
								10.973727,
								53.89533
							],
							[
								10.978991,
								53.894967
							],
							[
								10.983062,
								53.89276
							],
							[
								10.981296,
								53.890022
							],
							[
								10.983525,
								53.889101
							],
							[
								10.984014,
								53.887388
							],
							[
								10.981817,
								53.885457
							],
							[
								10.982813,
								53.88262
							],
							[
								10.980563,
								53.881167
							],
							[
								10.982361,
								53.8802
							],
							[
								10.982208,
								53.878433
							],
							[
								10.973421,
								53.875504
							],
							[
								10.968227,
								53.868916
							],
							[
								10.965111,
								53.867782
							],
							[
								10.960852,
								53.864335
							],
							[
								10.95912,
								53.861093
							],
							[
								10.953012,
								53.859431
							],
							[
								10.946095,
								53.856206
							],
							[
								10.943779,
								53.853723
							],
							[
								10.941509,
								53.853203
							],
							[
								10.938511,
								53.854705
							],
							[
								10.940748,
								53.858436
							],
							[
								10.949208,
								53.862471
							],
							[
								10.954488,
								53.86381
							],
							[
								10.954926,
								53.866575
							],
							[
								10.963352,
								53.871357
							],
							[
								10.970696,
								53.881002
							],
							[
								10.975839,
								53.884076
							],
							[
								10.975308,
								53.886063
							],
							[
								10.976389,
								53.887578
							],
							[
								10.974055,
								53.889635
							],
							[
								10.974932,
								53.891463
							],
							[
								10.967736,
								53.89106
							],
							[
								10.965418,
								53.892315
							],
							[
								10.96342,
								53.895058
							],
							[
								10.963694,
								53.898191
							],
							[
								10.96787,
								53.900446
							],
							[
								10.965711,
								53.904536
							],
							[
								10.96148,
								53.905806
							],
							[
								10.957987,
								53.90793
							],
							[
								10.952357,
								53.902947
							],
							[
								10.947866,
								53.901948
							],
							[
								10.944798,
								53.902541
							],
							[
								10.937946,
								53.898726
							],
							[
								10.930639,
								53.898917
							],
							[
								10.915563,
								53.895853
							],
							[
								10.910298,
								53.896056
							],
							[
								10.906779,
								53.897329
							],
							[
								10.899052,
								53.902929
							],
							[
								10.899688,
								53.908779
							],
							[
								10.907452,
								53.913797
							],
							[
								10.903196,
								53.913972
							],
							[
								10.900064,
								53.915713
							],
							[
								10.893313,
								53.916597
							],
							[
								10.885966,
								53.920441
							],
							[
								10.884229,
								53.922818
							],
							[
								10.881958,
								53.92184
							],
							[
								10.878833,
								53.918387
							],
							[
								10.878842,
								53.915542
							],
							[
								10.876814,
								53.913099
							],
							[
								10.870579,
								53.911582
							],
							[
								10.861553,
								53.908072
							],
							[
								10.858467,
								53.903583
							],
							[
								10.855786,
								53.902959
							],
							[
								10.851088,
								53.903148
							],
							[
								10.851695,
								53.898131
							],
							[
								10.849043,
								53.895339
							],
							[
								10.841073,
								53.893584
							],
							[
								10.836384,
								53.894396
							],
							[
								10.833509,
								53.892673
							],
							[
								10.829467,
								53.892579
							],
							[
								10.826595,
								53.891197
							],
							[
								10.821401,
								53.891491
							],
							[
								10.819269,
								53.888533
							],
							[
								10.813239,
								53.885188
							],
							[
								10.806217,
								53.883969
							],
							[
								10.802897,
								53.884973
							],
							[
								10.79842,
								53.888549
							],
							[
								10.797842,
								53.890736
							],
							[
								10.799509,
								53.892225
							],
							[
								10.791249,
								53.891571
							],
							[
								10.778301,
								53.887686
							],
							[
								10.767719,
								53.888873
							],
							[
								10.763814,
								53.892884
							],
							[
								10.765116,
								53.895604
							],
							[
								10.762884,
								53.897665
							],
							[
								10.760553,
								53.902666
							],
							[
								10.756829,
								53.905562
							],
							[
								10.750899,
								53.905113
							],
							[
								10.749851,
								53.904061
							],
							[
								10.74757,
								53.903657
							],
							[
								10.738932,
								53.904772
							],
							[
								10.733507,
								53.906418
							],
							[
								10.729395,
								53.905835
							],
							[
								10.729918,
								53.904248
							],
							[
								10.728132,
								53.902501
							],
							[
								10.721807,
								53.899862
							],
							[
								10.714376,
								53.900041
							],
							[
								10.711947,
								53.902108
							],
							[
								10.705779,
								53.898478
							],
							[
								10.705258,
								53.895877
							],
							[
								10.708035,
								53.890824
							],
							[
								10.70647,
								53.887625
							],
							[
								10.696661,
								53.88328
							],
							[
								10.693779,
								53.879953
							],
							[
								10.693589,
								53.876391
							],
							[
								10.699089,
								53.873136
							],
							[
								10.701167,
								53.868837
							],
							[
								10.700227,
								53.865667
							],
							[
								10.693339,
								53.857613
							],
							[
								10.68929,
								53.85546
							],
							[
								10.679861,
								53.853203
							],
							[
								10.670701,
								53.853519
							],
							[
								10.669469,
								53.855422
							],
							[
								10.671576,
								53.856934
							],
							[
								10.675707,
								53.858124
							]
						],
						[
							[
								10.704333,
								53.909567
							],
							[
								10.697058,
								53.905966
							],
							[
								10.697643,
								53.904167
							],
							[
								10.701953,
								53.903455
							],
							[
								10.707621,
								53.906218
							],
							[
								10.704333,
								53.909567
							]
						],
						[
							[
								10.770416,
								53.899554
							],
							[
								10.769329,
								53.900147
							],
							[
								10.76928,
								53.900097
							],
							[
								10.770416,
								53.899554
							]
						]
					]
				]
			}
		},
		{
			"type": "Feature",
			"properties": {
				"name": "Unterwarnow",
				"grund": "Brackiger Muendungsbereich zwischen Warnemuende und Rostock mit Sichtungshaeufung. Als Binnenwasser kartiert und ohne Maske beim Landabzug entfernt. Zusammengesetzt aus den unbenannten OSM-Wasserflaechen entlang der Achse Rostock-Warnemuende (inkl. Breitling), geclippt ab Muehlendamm (54,083 N) — die Warnow oberhalb bleibt draussen. OSM-Wasserumriss +200 m Puffer (wie buffer_shore_m), vereinfacht 50 m, beides metrisch in EPSG:3035. Overpass-Abzug 2026-08-03."
			},
			"geometry": {
				"type": "MultiPolygon",
				"coordinates": [
					[
						[
							[
								12.069429,
								54.143873
							],
							[
								12.071242,
								54.145191
							],
							[
								12.079688,
								54.145142
							],
							[
								12.083585,
								54.146688
							],
							[
								12.085352,
								54.147771
							],
							[
								12.089239,
								54.153579
							],
							[
								12.086861,
								54.154598
							],
							[
								12.086141,
								54.1559
							],
							[
								12.087354,
								54.157331
							],
							[
								12.090047,
								54.157742
							],
							[
								12.089775,
								54.164123
							],
							[
								12.090955,
								54.165373
							],
							[
								12.092871,
								54.16575
							],
							[
								12.093237,
								54.168656
							],
							[
								12.088208,
								54.167271
							],
							[
								12.084948,
								54.169353
							],
							[
								12.085732,
								54.170981
							],
							[
								12.088988,
								54.172356
							],
							[
								12.086078,
								54.174904
							],
							[
								12.084105,
								54.180329
							],
							[
								12.083944,
								54.185604
							],
							[
								12.085273,
								54.188065
							],
							[
								12.091906,
								54.188851
							],
							[
								12.096,
								54.186596
							],
							[
								12.102782,
								54.171625
							],
							[
								12.104733,
								54.172137
							],
							[
								12.105063,
								54.175389
							],
							[
								12.106712,
								54.176662
							],
							[
								12.114668,
								54.177034
							],
							[
								12.122029,
								54.179308
							],
							[
								12.12495,
								54.17895
							],
							[
								12.129328,
								54.175694
							],
							[
								12.133766,
								54.175918
							],
							[
								12.136192,
								54.176825
							],
							[
								12.137998,
								54.17959
							],
							[
								12.13637,
								54.184949
							],
							[
								12.141029,
								54.188574
							],
							[
								12.145211,
								54.189499
							],
							[
								12.151042,
								54.189283
							],
							[
								12.153118,
								54.191511
							],
							[
								12.157101,
								54.191286
							],
							[
								12.158023,
								54.190044
							],
							[
								12.157051,
								54.188061
							],
							[
								12.15944,
								54.187326
							],
							[
								12.160191,
								54.185736
							],
							[
								12.159356,
								54.184522
							],
							[
								12.157204,
								54.183862
							],
							[
								12.15801,
								54.181301
							],
							[
								12.156523,
								54.179428
							],
							[
								12.14672,
								54.173861
							],
							[
								12.145579,
								54.169687
							],
							[
								12.141339,
								54.166734
							],
							[
								12.140589,
								54.163284
							],
							[
								12.148347,
								54.164149
							],
							[
								12.154301,
								54.162552
							],
							[
								12.154771,
								54.160219
							],
							[
								12.149944,
								54.158892
							],
							[
								12.146579,
								54.160135
							],
							[
								12.144898,
								54.158273
							],
							[
								12.139842,
								54.157666
							],
							[
								12.131584,
								54.15341
							],
							[
								12.129291,
								54.153604
							],
							[
								12.126592,
								54.155373
							],
							[
								12.129092,
								54.14999
							],
							[
								12.127637,
								54.148902
							],
							[
								12.12375,
								54.148163
							],
							[
								12.120731,
								54.149059
							],
							[
								12.116067,
								54.157128
							],
							[
								12.111371,
								54.15756
							],
							[
								12.117306,
								54.146042
							],
							[
								12.11588,
								54.144956
							],
							[
								12.110969,
								54.144263
							],
							[
								12.109109,
								54.145107
							],
							[
								12.107568,
								54.147712
							],
							[
								12.107395,
								54.144009
							],
							[
								12.105348,
								54.143339
							],
							[
								12.100929,
								54.143377
							],
							[
								12.099647,
								54.13779
							],
							[
								12.100823,
								54.136642
							],
							[
								12.10348,
								54.124626
							],
							[
								12.101364,
								54.120725
							],
							[
								12.101608,
								54.117188
							],
							[
								12.105186,
								54.111401
							],
							[
								12.120704,
								54.098256
							],
							[
								12.126414,
								54.097224
							],
							[
								12.131082,
								54.099751
							],
							[
								12.133712,
								54.099266
							],
							[
								12.139316,
								54.099725
							],
							[
								12.141812,
								54.099019
							],
							[
								12.148139,
								54.099807
							],
							[
								12.155307,
								54.098069
							],
							[
								12.156199,
								54.0968
							],
							[
								12.155489,
								54.095242
							],
							[
								12.157675,
								54.091902
							],
							[
								12.163052,
								54.091706
							],
							[
								12.165784,
								54.088795
							],
							[
								12.163749,
								54.086943
							],
							[
								12.158198,
								54.086957
							],
							[
								12.159588,
								54.08402
							],
							[
								12.15844,
								54.081907
							],
							[
								12.15492,
								54.081203
							],
							[
								12.147487,
								54.081774
							],
							[
								12.144119,
								54.086854
							],
							[
								12.14681,
								54.088514
							],
							[
								12.150097,
								54.088583
							],
							[
								12.148764,
								54.090282
							],
							[
								12.145471,
								54.09162
							],
							[
								12.122689,
								54.09075
							],
							[
								12.115526,
								54.092659
							],
							[
								12.110523,
								54.092627
							],
							[
								12.105866,
								54.094257
							],
							[
								12.104134,
								54.096655
							],
							[
								12.099914,
								54.097983
							],
							[
								12.098247,
								54.100064
							],
							[
								12.095564,
								54.101255
							],
							[
								12.090264,
								54.107696
							],
							[
								12.089138,
								54.10842
							],
							[
								12.085089,
								54.108209
							],
							[
								12.08276,
								54.110429
							],
							[
								12.085661,
								54.113975
							],
							[
								12.082393,
								54.123384
							],
							[
								12.085526,
								54.127084
							],
							[
								12.085904,
								54.129818
							],
							[
								12.087877,
								54.132192
							],
							[
								12.085891,
								54.134389
							],
							[
								12.08508,
								54.138428
							],
							[
								12.083285,
								54.139768
							],
							[
								12.08289,
								54.141723
							],
							[
								12.075779,
								54.140895
							],
							[
								12.070313,
								54.142137
							],
							[
								12.069429,
								54.143873
							]
						],
						[
							[
								12.146419,
								54.18278
							],
							[
								12.142818,
								54.184143
							],
							[
								12.144614,
								54.180561
							],
							[
								12.143538,
								54.177566
							],
							[
								12.151538,
								54.181837
							],
							[
								12.150828,
								54.182517
							],
							[
								12.146419,
								54.18278
							]
						]
					]
				]
			}
		},
		{
			"type": "Feature",
			"properties": {
				"name": "Salzhaff",
				"grund": "Brackige Lagune hinter der Halbinsel Wustrow bei Rerik, dauerhaft Ostsee-verbunden. Stand 2026-08-03 bereits ueber die OSM-Kuestenlinie in der Wasserflaeche — der Korridor ist eine defensive Absicherung gegen Aenderungen der Kuestenlinien-Konvention. Wasserumriss aus OSM-Relation 9037739. OSM-Wasserumriss +200 m Puffer (wie buffer_shore_m), vereinfacht 50 m, beides metrisch in EPSG:3035. Overpass-Abzug 2026-08-03."
			},
			"geometry": {
				"type": "MultiPolygon",
				"coordinates": [
					[
						[
							[
								11.529634,
								54.05077
							],
							[
								11.531226,
								54.052264
							],
							[
								11.539527,
								54.056002
							],
							[
								11.539016,
								54.058548
							],
							[
								11.54546,
								54.064352
							],
							[
								11.544976,
								54.065994
							],
							[
								11.546308,
								54.067753
							],
							[
								11.54831,
								54.068484
							],
							[
								11.550897,
								54.068287
							],
							[
								11.554026,
								54.069613
							],
							[
								11.566953,
								54.080109
							],
							[
								11.57406,
								54.082272
							],
							[
								11.577095,
								54.088421
							],
							[
								11.585047,
								54.094246
							],
							[
								11.590842,
								54.096303
							],
							[
								11.598441,
								54.096615
							],
							[
								11.596935,
								54.098355
							],
							[
								11.597031,
								54.1007
							],
							[
								11.600632,
								54.103568
							],
							[
								11.607349,
								54.105934
							],
							[
								11.614082,
								54.105037
							],
							[
								11.617981,
								54.1022
							],
							[
								11.625813,
								54.092976
							],
							[
								11.629457,
								54.090287
							],
							[
								11.626878,
								54.080145
							],
							[
								11.627188,
								54.076476
							],
							[
								11.623238,
								54.073978
							],
							[
								11.615868,
								54.07175
							],
							[
								11.61662,
								54.069983
							],
							[
								11.615107,
								54.068509
							],
							[
								11.607471,
								54.067464
							],
							[
								11.603457,
								54.065793
							],
							[
								11.596224,
								54.065679
							],
							[
								11.589664,
								54.062922
							],
							[
								11.585092,
								54.062226
							],
							[
								11.58919,
								54.052213
							],
							[
								11.589889,
								54.046791
							],
							[
								11.580026,
								54.035258
							],
							[
								11.57444,
								54.03151
							],
							[
								11.564344,
								54.026822
							],
							[
								11.551837,
								54.023829
							],
							[
								11.545284,
								54.023018
							],
							[
								11.537831,
								54.02364
							],
							[
								11.532268,
								54.025456
							],
							[
								11.529275,
								54.027718
							],
							[
								11.52874,
								54.030855
							],
							[
								11.52685,
								54.033349
							],
							[
								11.529634,
								54.05077
							]
						]
					]
				]
			}
		},
		{
			"type": "Feature",
			"properties": {
				"name": "Saaler Bodden",
				"grund": "Suedlichstes Glied der Darss-Zingster Boddenkette. Der Nordteil liegt bereits seewaerts der OSM-Kuestenlinie in der Wasserflaeche, der Suedteil (etwa ab 54,31 N, Review 2026-08-03) nicht — die Maske schliesst diese Luecke und sichert den Nordteil defensiv ab. Wasserumriss aus OSM-Relation 8713015; endet an der Recknitz-Muendung bei Ribnitz-Damgarten. OSM-Wasserumriss +200 m Puffer (wie buffer_shore_m), vereinfacht 50 m, beides metrisch in EPSG:3035. Overpass-Abzug 2026-08-03."
			},
			"geometry": {
				"type": "MultiPolygon",
				"coordinates": [
					[
						[
							[
								12.355124,
								54.302987
							],
							[
								12.357218,
								54.304532
							],
							[
								12.357153,
								54.30694
							],
							[
								12.363526,
								54.311717
							],
							[
								12.3675,
								54.312328
							],
							[
								12.376644,
								54.310479
							],
							[
								12.381175,
								54.311779
							],
							[
								12.380657,
								54.314906
							],
							[
								12.388317,
								54.318866
							],
							[
								12.388141,
								54.321853
							],
							[
								12.393125,
								54.324336
							],
							[
								12.391247,
								54.325944
							],
							[
								12.39111,
								54.32791
							],
							[
								12.394518,
								54.333632
							],
							[
								12.405521,
								54.338479
							],
							[
								12.414168,
								54.337448
							],
							[
								12.417541,
								54.341085
							],
							[
								12.418153,
								54.344263
							],
							[
								12.416825,
								54.353768
							],
							[
								12.412705,
								54.356479
							],
							[
								12.413489,
								54.358843
							],
							[
								12.411185,
								54.366021
							],
							[
								12.414748,
								54.368514
							],
							[
								12.415813,
								54.372565
							],
							[
								12.41717,
								54.373769
							],
							[
								12.424082,
								54.374567
							],
							[
								12.425892,
								54.376072
							],
							[
								12.431514,
								54.377274
							],
							[
								12.432674,
								54.379802
							],
							[
								12.435284,
								54.380864
							],
							[
								12.439094,
								54.380443
							],
							[
								12.448972,
								54.381566
							],
							[
								12.451354,
								54.382732
							],
							[
								12.460117,
								54.38327
							],
							[
								12.496035,
								54.384109
							],
							[
								12.503589,
								54.383194
							],
							[
								12.514831,
								54.37784
							],
							[
								12.516357,
								54.376011
							],
							[
								12.52538,
								54.371326
							],
							[
								12.526198,
								54.369018
							],
							[
								12.529631,
								54.366198
							],
							[
								12.527971,
								54.363991
							],
							[
								12.53029,
								54.360941
							],
							[
								12.529101,
								54.359347
							],
							[
								12.530436,
								54.357767
							],
							[
								12.529227,
								54.354365
							],
							[
								12.531677,
								54.350548
							],
							[
								12.531194,
								54.347464
							],
							[
								12.541693,
								54.346168
							],
							[
								12.542034,
								54.341546
							],
							[
								12.53767,
								54.337205
							],
							[
								12.526808,
								54.332347
							],
							[
								12.521198,
								54.331525
							],
							[
								12.515169,
								54.333665
							],
							[
								12.504418,
								54.331612
							],
							[
								12.501259,
								54.329688
							],
							[
								12.496495,
								54.328609
							],
							[
								12.478038,
								54.328963
							],
							[
								12.475959,
								54.328238
							],
							[
								12.474733,
								54.322349
							],
							[
								12.47837,
								54.319584
							],
							[
								12.480869,
								54.316004
							],
							[
								12.480725,
								54.314148
							],
							[
								12.482656,
								54.312392
							],
							[
								12.482558,
								54.307735
							],
							[
								12.481142,
								54.306341
							],
							[
								12.482058,
								54.304288
							],
							[
								12.480583,
								54.302501
							],
							[
								12.471996,
								54.300333
							],
							[
								12.465269,
								54.299799
							],
							[
								12.462927,
								54.298667
							],
							[
								12.455944,
								54.297355
							],
							[
								12.435975,
								54.294849
							],
							[
								12.433111,
								54.29269
							],
							[
								12.427361,
								54.290736
							],
							[
								12.424046,
								54.28858
							],
							[
								12.41964,
								54.287585
							],
							[
								12.417438,
								54.282909
							],
							[
								12.412337,
								54.279214
							],
							[
								12.410659,
								54.275512
							],
							[
								12.408234,
								54.274647
							],
							[
								12.382387,
								54.276527
							],
							[
								12.378175,
								54.277934
							],
							[
								12.373499,
								54.28087
							],
							[
								12.371282,
								54.283538
							],
							[
								12.36469,
								54.287483
							],
							[
								12.361506,
								54.291052
							],
							[
								12.360871,
								54.295158
							],
							[
								12.354866,
								54.298727
							],
							[
								12.355124,
								54.302987
							]
						]
					]
				]
			}
		},
		{
			"type": "Feature",
			"properties": {
				"name": "Achterwasser",
				"grund": "Brackwasser-Lagune des Peenestrom-Reviers westlich Usedoms. Stand 2026-08-03 bereits ueber die OSM-Kuestenlinie in der Wasserflaeche (wie der Peenestrom selbst, der deshalb keinen eigenen Korridor braucht) — defensive Absicherung. Wasserumriss aus OSM-Relation 10102164. OSM-Wasserumriss +200 m Puffer (wie buffer_shore_m), vereinfacht 50 m, beides metrisch in EPSG:3035. Overpass-Abzug 2026-08-03."
			},
			"geometry": {
				"type": "MultiPolygon",
				"coordinates": [
					[
						[
							[
								13.862877,
								54.007323
							],
							[
								13.866088,
								54.009048
							],
							[
								13.872012,
								54.009795
							],
							[
								13.875494,
								54.011309
							],
							[
								13.88246,
								54.012096
							],
							[
								13.884974,
								54.011555
							],
							[
								13.885981,
								54.012952
							],
							[
								13.888109,
								54.013673
							],
							[
								13.892537,
								54.012721
							],
							[
								13.897174,
								54.013663
							],
							[
								13.904235,
								54.020132
							],
							[
								13.903383,
								54.022032
							],
							[
								13.906287,
								54.026422
							],
							[
								13.912456,
								54.029965
							],
							[
								13.915158,
								54.034495
							],
							[
								13.921044,
								54.036769
							],
							[
								13.919423,
								54.039146
							],
							[
								13.916142,
								54.040352
							],
							[
								13.915799,
								54.042927
							],
							[
								13.912991,
								54.045771
							],
							[
								13.909149,
								54.046186
							],
							[
								13.907524,
								54.04784
							],
							[
								13.911034,
								54.05716
							],
							[
								13.917073,
								54.064157
							],
							[
								13.924313,
								54.065084
							],
							[
								13.934101,
								54.063041
							],
							[
								13.937411,
								54.063516
							],
							[
								13.947002,
								54.062584
							],
							[
								13.95067,
								54.060708
							],
							[
								13.968439,
								54.061357
							],
							[
								13.974808,
								54.059727
							],
							[
								13.978096,
								54.057686
							],
							[
								13.979983,
								54.054976
							],
							[
								13.984423,
								54.053445
							],
							[
								13.98395,
								54.051126
							],
							[
								13.985216,
								54.050059
							],
							[
								13.993089,
								54.048031
							],
							[
								13.998568,
								54.044118
							],
							[
								14.001185,
								54.038515
							],
							[
								14.002669,
								54.031577
							],
							[
								14.005179,
								54.027517
							],
							[
								14.007043,
								54.019283
							],
							[
								14.005934,
								54.01668
							],
							[
								14.006953,
								54.012062
							],
							[
								14.008907,
								54.011888
							],
							[
								14.015243,
								54.016198
							],
							[
								14.01251,
								54.018177
							],
							[
								14.011699,
								54.020644
							],
							[
								14.01441,
								54.023185
							],
							[
								14.016957,
								54.023586
							],
							[
								14.019408,
								54.02239
							],
							[
								14.019772,
								54.019996
							],
							[
								14.029284,
								54.019829
							],
							[
								14.034827,
								54.018042
							],
							[
								14.04401,
								54.009377
							],
							[
								14.044819,
								54.004426
							],
							[
								14.046618,
								54.001988
							],
							[
								14.045829,
								54.00023
							],
							[
								14.050391,
								53.997766
							],
							[
								14.049724,
								53.99307
							],
							[
								14.051819,
								53.980619
							],
							[
								14.048932,
								53.97115
							],
							[
								14.045719,
								53.967528
							],
							[
								14.046713,
								53.963294
							],
							[
								14.038444,
								53.95069
							],
							[
								14.039299,
								53.946377
							],
							[
								14.032288,
								53.943752
							],
							[
								14.02814,
								53.943633
							],
							[
								14.02615,
								53.944324
							],
							[
								14.025035,
								53.949774
							],
							[
								14.022555,
								53.950244
							],
							[
								14.021574,
								53.951415
							],
							[
								14.020611,
								53.957902
							],
							[
								14.021464,
								53.960668
							],
							[
								14.003973,
								53.957182
							],
							[
								14.000503,
								53.957636
							],
							[
								13.994658,
								53.960797
							],
							[
								13.987064,
								53.959831
							],
							[
								13.983693,
								53.9608
							],
							[
								13.967736,
								53.971101
							],
							[
								13.962005,
								53.971542
							],
							[
								13.960274,
								53.973266
							],
							[
								13.962185,
								53.97912
							],
							[
								13.961131,
								53.982536
							],
							[
								13.96347,
								53.984589
							],
							[
								13.962059,
								53.989484
							],
							[
								13.959855,
								53.99058
							],
							[
								13.945458,
								53.992896
							],
							[
								13.938141,
								53.991726
							],
							[
								13.935036,
								53.989632
							],
							[
								13.910746,
								53.989433
							],
							[
								13.904745,
								53.987584
							],
							[
								13.860005,
								53.998148
							],
							[
								13.858142,
								53.999495
							],
							[
								13.862877,
								54.007323
							]
						],
						[
							[
								13.919846,
								54.02068
							],
							[
								13.923388,
								54.018538
							],
							[
								13.920749,
								54.021118
							],
							[
								13.921786,
								54.024123
							],
							[
								13.924832,
								54.02554
							],
							[
								13.930786,
								54.026566
							],
							[
								13.929443,
								54.029094
							],
							[
								13.925971,
								54.027886
							],
							[
								13.920139,
								54.02379
							],
							[
								13.919846,
								54.02068
							]
						]
					]
				]
			}
		},
		{
			"type": "Feature",
			"properties": {
				"name": "Krumminer Wiek",
				"grund": "Nordwestliche Bucht des Peenestrom-Reviers. Stand 2026-08-03 bereits ueber die OSM-Kuestenlinie in der Wasserflaeche — defensive Absicherung. Wasserumriss aus OSM-Relation 20103117. OSM-Wasserumriss +200 m Puffer (wie buffer_shore_m), vereinfacht 50 m, beides metrisch in EPSG:3035. Overpass-Abzug 2026-08-03."
			},
			"geometry": {
				"type": "MultiPolygon",
				"coordinates": [
					[
						[
							[
								13.807242,
								54.031896
							],
							[
								13.814462,
								54.034338
							],
							[
								13.81859,
								54.038775
							],
							[
								13.820991,
								54.039542
							],
							[
								13.82357,
								54.039083
							],
							[
								13.832153,
								54.04037
							],
							[
								13.839949,
								54.042826
							],
							[
								13.842321,
								54.043746
							],
							[
								13.84211,
								54.045632
							],
							[
								13.845621,
								54.048017
							],
							[
								13.850704,
								54.048766
							],
							[
								13.852766,
								54.049976
							],
							[
								13.857439,
								54.0503
							],
							[
								13.866557,
								54.047754
							],
							[
								13.869758,
								54.047816
							],
							[
								13.873608,
								54.046004
							],
							[
								13.877753,
								54.045312
							],
							[
								13.880746,
								54.043559
							],
							[
								13.882735,
								54.04028
							],
							[
								13.881581,
								54.035501
							],
							[
								13.87508,
								54.030512
							],
							[
								13.87157,
								54.030552
							],
							[
								13.86882,
								54.032367
							],
							[
								13.867792,
								54.0289
							],
							[
								13.86876,
								54.026237
							],
							[
								13.866827,
								54.021458
							],
							[
								13.859803,
								54.01765
							],
							[
								13.856024,
								54.01324
							],
							[
								13.856649,
								54.004556
							],
							[
								13.858286,
								54.002984
							],
							[
								13.863755,
								54.000746
							],
							[
								13.864092,
								53.999356
							],
							[
								13.862629,
								53.998247
							],
							[
								13.859696,
								53.998234
							],
							[
								13.79997,
								54.017162
							],
							[
								13.798367,
								54.018685
							],
							[
								13.807242,
								54.031896
							]
						]
					]
				]
			}
		}
	]
}
